HYPERFIELD-1A           
1 60562U 24149CY  26068.76488211  .00008569  00000+0  30052-3 0  9998
2 60562  97.3842 149.5066 0003865 313.7844  46.3076 15.29681349 86836
STARLINK-34222          
1 64191U 25113X   26068.44120513  .00027535  00000+0  93845-3 0  9998
2 64191  53.1598  92.5258 0001336  80.5572 279.5580 15.30196643 44984
